CCSDS_OMM_VERS = 2.0
CREATION_DATE  = 
ORIGINATOR     = 

OBJECT_NAME    = TITAN 4B R/B
OBJECT_ID      = 2000-047B
CENTER_NAME    = EARTH
REF_FRAME      = TEME
TIME_SYSTEM    = UTC
MEAN_ELEMENT_THEORY = SGP/SGP4

EPOCH          = 2025-11-18T19:25:31.414368
MEAN_MOTION    = 15.08542875
ECCENTRICITY   = .0041022
INCLINATION    = 67.9906
RA_OF_ASC_NODE = 352.0524
ARG_OF_PERICENTER = 172.6500
MEAN_ANOMALY   = 187.5260

EPHEMERIS_TYPE = 0
CLASSIFICATION_TYPE = U
NORAD_CAT_ID   = 26474
ELEMENT_SET_NO = 999
REV_AT_EPOCH   = 37618
BSTAR          = .27034E-3
MEAN_MOTION_DOT = .4179E-4
MEAN_MOTION_DDOT = 0

CCSDS_OMM_VERS = 2.0
CREATION_DATE  = 
ORIGINATOR     = 

OBJECT_NAME    = ENVISAT
OBJECT_ID      = 2002-009A
CENTER_NAME    = EARTH
REF_FRAME      = TEME
TIME_SYSTEM    = UTC
MEAN_ELEMENT_THEORY = SGP/SGP4

EPOCH          = 2025-11-18T20:04:57.957024
MEAN_MOTION    = 14.38986853
ECCENTRICITY   = .0001249
INCLINATION    = 98.3560
RA_OF_ASC_NODE = 274.1880
ARG_OF_PERICENTER = 81.7362
MEAN_ANOMALY   = 286.6650

EPHEMERIS_TYPE = 0
CLASSIFICATION_TYPE = U
NORAD_CAT_ID   = 27386
ELEMENT_SET_NO = 999
REV_AT_EPOCH   = 24323
BSTAR          = .76745E-4
MEAN_MOTION_DOT = .194E-5
MEAN_MOTION_DDOT = 0

CCSDS_OMM_VERS = 2.0
CREATION_DATE  = 
ORIGINATOR     = 

OBJECT_NAME    = IDEFIX & ARIANE 42P R/B
OBJECT_ID      = 2002-021B
CENTER_NAME    = EARTH
REF_FRAME      = TEME
TIME_SYSTEM    = UTC
MEAN_ELEMENT_THEORY = SGP/SGP4

EPOCH          = 2025-11-18T19:24:56.836224
MEAN_MOTION    = 14.30925748
ECCENTRICITY   = .0012206
INCLINATION    = 98.5749
RA_OF_ASC_NODE = 257.8149
ARG_OF_PERICENTER = 149.1041
MEAN_ANOMALY   = 211.0862

EPHEMERIS_TYPE = 0
CLASSIFICATION_TYPE = U
NORAD_CAT_ID   = 27422
ELEMENT_SET_NO = 999
REV_AT_EPOCH   = 22816
BSTAR          = .17944E-3
MEAN_MOTION_DOT = .428E-5
MEAN_MOTION_DDOT = 0

CCSDS_OMM_VERS = 2.0
CREATION_DATE  = 
ORIGINATOR     = 

OBJECT_NAME    = AQUA
OBJECT_ID      = 2002-022A
CENTER_NAME    = EARTH
REF_FRAME      = TEME
TIME_SYSTEM    = UTC
MEAN_ELEMENT_THEORY = SGP/SGP4

EPOCH          = 2025-11-18T20:41:53.741184
MEAN_MOTION    = 14.61728727
ECCENTRICITY   = .0000654
INCLINATION    = 98.4001
RA_OF_ASC_NODE = 283.3594
ARG_OF_PERICENTER = 65.6324
MEAN_ANOMALY   = 323.3038

EPHEMERIS_TYPE = 0
CLASSIFICATION_TYPE = U
NORAD_CAT_ID   = 27424
ELEMENT_SET_NO = 999
REV_AT_EPOCH   = 25254
BSTAR          = .31692E-3
MEAN_MOTION_DOT = .1531E-4
MEAN_MOTION_DDOT = 0

CCSDS_OMM_VERS = 2.0
CREATION_DATE  = 
ORIGINATOR     = 

OBJECT_NAME    = CZ-4B R/B
OBJECT_ID      = 2002-024C
CENTER_NAME    = EARTH
REF_FRAME      = TEME
TIME_SYSTEM    = UTC
MEAN_ELEMENT_THEORY = SGP/SGP4

EPOCH          = 2025-11-18T14:46:55.500096
MEAN_MOTION    = 14.14520957
ECCENTRICITY   = .0049722
INCLINATION    = 98.9037
RA_OF_ASC_NODE = 11.4676
ARG_OF_PERICENTER = 339.5708
MEAN_ANOMALY   = 183.8677

EPHEMERIS_TYPE = 0
CLASSIFICATION_TYPE = U
NORAD_CAT_ID   = 27432
ELEMENT_SET_NO = 999
REV_AT_EPOCH   = 21353
BSTAR          = .70181E-4
MEAN_MOTION_DOT = .91E-6
MEAN_MOTION_DDOT = 0

CCSDS_OMM_VERS = 2.0
CREATION_DATE  = 
ORIGINATOR     = 

OBJECT_NAME    = MIDORI II (ADEOS-II)
OBJECT_ID      = 2002-056A
CENTER_NAME    = EARTH
REF_FRAME      = TEME
TIME_SYSTEM    = UTC
MEAN_ELEMENT_THEORY = SGP/SGP4

EPOCH          = 2025-11-18T20:12:50.950368
MEAN_MOTION    = 14.29182727
ECCENTRICITY   = .0001072
INCLINATION    = 98.7597
RA_OF_ASC_NODE = 275.6779
ARG_OF_PERICENTER = 26.2865
MEAN_ANOMALY   = 333.8371

EPHEMERIS_TYPE = 0
CLASSIFICATION_TYPE = U
NORAD_CAT_ID   = 27597
ELEMENT_SET_NO = 999
REV_AT_EPOCH   = 19446
BSTAR          = .17379E-3
MEAN_MOTION_DOT = .396E-5
MEAN_MOTION_DDOT = 0

CCSDS_OMM_VERS = 2.0
CREATION_DATE  = 
ORIGINATOR     = 

OBJECT_NAME    = H-2A R/B
OBJECT_ID      = 2002-056E
CENTER_NAME    = EARTH
REF_FRAME      = TEME
TIME_SYSTEM    = UTC
MEAN_ELEMENT_THEORY = SGP/SGP4

EPOCH          = 2025-11-18T21:00:09.383040
MEAN_MOTION    = 14.33651153
ECCENTRICITY   = .0071139
INCLINATION    = 98.3028
RA_OF_ASC_NODE = 282.5871
ARG_OF_PERICENTER = 131.1554
MEAN_ANOMALY   = 256.0631

EPHEMERIS_TYPE = 0
CLASSIFICATION_TYPE = U
NORAD_CAT_ID   = 27601
ELEMENT_SET_NO = 999
REV_AT_EPOCH   = 19823
BSTAR          = .14589E-3
MEAN_MOTION_DOT = .375E-5
MEAN_MOTION_DDOT = 0

CCSDS_OMM_VERS = 2.0
CREATION_DATE  = 
ORIGINATOR     = 

OBJECT_NAME    = CZ-4B R/B
OBJECT_ID      = 2003-049C
CENTER_NAME    = EARTH
REF_FRAME      = TEME
TIME_SYSTEM    = UTC
MEAN_ELEMENT_THEORY = SGP/SGP4

EPOCH          = 2025-11-18T20:50:46.620096
MEAN_MOTION    = 14.54878608
ECCENTRICITY   = .0047633
INCLINATION    = 98.6769
RA_OF_ASC_NODE = 308.5330
ARG_OF_PERICENTER = 208.7448
MEAN_ANOMALY   = 151.1122

EPHEMERIS_TYPE = 0
CLASSIFICATION_TYPE = U
NORAD_CAT_ID   = 28059
ELEMENT_SET_NO = 999
REV_AT_EPOCH   = 17048
BSTAR          = .13988E-3
MEAN_MOTION_DOT = .558E-5
MEAN_MOTION_DDOT = 0

CCSDS_OMM_VERS = 2.0
CREATION_DATE  = 
ORIGINATOR     = 

OBJECT_NAME    = CZ-2C R/B
OBJECT_ID      = 2004-012C
CENTER_NAME    = EARTH
REF_FRAME      = TEME
TIME_SYSTEM    = UTC
MEAN_ELEMENT_THEORY = SGP/SGP4

EPOCH          = 2025-11-18T19:00:04.070592
MEAN_MOTION    = 15.53425054
ECCENTRICITY   = .001853
INCLINATION    = 97.7467
RA_OF_ASC_NODE = 13.4727
ARG_OF_PERICENTER = 2.2694
MEAN_ANOMALY   = 357.8639

EPHEMERIS_TYPE = 0
CLASSIFICATION_TYPE = U
NORAD_CAT_ID   = 28222
ELEMENT_SET_NO = 999
REV_AT_EPOCH   = 18700
BSTAR          = .52376E-3
MEAN_MOTION_DOT = .33388E-3
MEAN_MOTION_DDOT = 0

CCSDS_OMM_VERS = 2.0
CREATION_DATE  = 
ORIGINATOR     = 

OBJECT_NAME    = SL-16 R/B
OBJECT_ID      = 2004-021B
CENTER_NAME    = EARTH
REF_FRAME      = TEME
TIME_SYSTEM    = UTC
MEAN_ELEMENT_THEORY = SGP/SGP4

EPOCH          = 2025-11-18T18:59:11.688000
MEAN_MOTION    = 14.14577621
ECCENTRICITY   = .0006351
INCLINATION    = 70.9992
RA_OF_ASC_NODE = 105.2196
ARG_OF_PERICENTER = 224.9515
MEAN_ANOMALY   = 135.1094

EPHEMERIS_TYPE = 0
CLASSIFICATION_TYPE = U
NORAD_CAT_ID   = 28353
ELEMENT_SET_NO = 999
REV_AT_EPOCH   = 10715
BSTAR          = .19947E-3
MEAN_MOTION_DOT = .336E-5
MEAN_MOTION_DDOT = 0

CCSDS_OMM_VERS = 2.0
CREATION_DATE  = 
ORIGINATOR     = 

OBJECT_NAME    = CZ-4B R/B
OBJECT_ID      = 2004-035C
CENTER_NAME    = EARTH
REF_FRAME      = TEME
TIME_SYSTEM    = UTC
MEAN_ELEMENT_THEORY = SGP/SGP4

EPOCH          = 2025-11-18T20:11:01.808160
MEAN_MOTION    = 15.26848399
ECCENTRICITY   = .0033824
INCLINATION    = 97.3639
RA_OF_ASC_NODE = 353.5103
ARG_OF_PERICENTER = 4.6684
MEAN_ANOMALY   = 355.4864

EPHEMERIS_TYPE = 0
CLASSIFICATION_TYPE = U
NORAD_CAT_ID   = 28415
ELEMENT_SET_NO = 999
REV_AT_EPOCH   = 16298
BSTAR          = .36046E-3
MEAN_MOTION_DOT = .9596E-4
MEAN_MOTION_DDOT = 0

CCSDS_OMM_VERS = 2.0
CREATION_DATE  = 
ORIGINATOR     = 

OBJECT_NAME    = CZ-2C R/B
OBJECT_ID      = 2004-046B
CENTER_NAME    = EARTH
REF_FRAME      = TEME
TIME_SYSTEM    = UTC
MEAN_ELEMENT_THEORY = SGP/SGP4

EPOCH          = 2025-11-18T16:43:58.060128
MEAN_MOTION    = 14.26925579
ECCENTRICITY   = .0140528
INCLINATION    = 98.1966
RA_OF_ASC_NODE = 239.5725
ARG_OF_PERICENTER = 122.8259
MEAN_ANOMALY   = 238.6545

EPHEMERIS_TYPE = 0
CLASSIFICATION_TYPE = U
NORAD_CAT_ID   = 28480
ELEMENT_SET_NO = 999
REV_AT_EPOCH   = 9267
BSTAR          = .10201E-3
MEAN_MOTION_DOT = .235E-5
MEAN_MOTION_DDOT = 0

